[{"OBJECT_NAME":"STARLINK-3633","OBJECT_ID":"2022-017AB","EPOCH":"2026-03-10T00:00:02.999808","MEAN_MOTION":15.39868705,"ECCENTRICITY":0.00016754,"INCLINATION":53.2187,"RA_OF_ASC_NODE":342.1898,"ARG_OF_PERICENTER":57.4392,"MEAN_ANOMALY":30.5181,"EPHEMERIS_TYPE":0,"CLASSIFICATION_TYPE":"U","NORAD_CAT_ID":51793,"ELEMENT_SET_NO":999,"REV_AT_EPOCH":584,"BSTAR":0.011808492,"MEAN_MOTION_DOT":0.00508972,"MEAN_MOTION_DDOT":0},{"OBJECT_NAME":"CZ-2C R\/B","OBJECT_ID":"2023-032C","EPOCH":"2026-03-09T19:42:47.332224","MEAN_MOTION":15.40353492,"ECCENTRICITY":0.00338763,"INCLINATION":97.5715,"RA_OF_ASC_NODE":173.3039,"ARG_OF_PERICENTER":15.3476,"MEAN_ANOMALY":344.8789,"EPHEMERIS_TYPE":0,"CLASSIFICATION_TYPE":"U","NORAD_CAT_ID":55846,"ELEMENT_SET_NO":999,"REV_AT_EPOCH":16638,"BSTAR":0.00042068091,"MEAN_MOTION_DOT":0.00017253,"MEAN_MOTION_DDOT":0}]
